49297,ONEWEB-0371,2021,109.11,148.0,+,87.92,Active,1,LEO,Russia,UK,Commercial,Communications,Soyuz,1 49297U 21090U   25055.46825607 -.00000133  00000+0 -36401-3 0  9993,2 49297  87.9173  39.9141 0001989  84.2606 275.8754 13.19725399163443,13.19725399,0.0001989,LEO
49298,ONEWEB-0372,2021,109.03,148.0,+,87.93,Active,1,LEO,Russia,UK,Commercial,Communications,Soyuz,1 49298U 21090V   25055.59052818 -.00000162  00000+0 -43043-3 0  9996,2 49298  87.9311   9.4815 0001978  83.8354 276.3005 13.20770553166791,13.20770553,0.0001978,LEO
49299,ONEWEB-0373,2021,109.03,148.0,+,87.93,Active,1,LEO,Russia,UK,Commercial,Communications,Soyuz,1 49299U 21090W   25055.39023149 -.00000223  00000+0 -58026-3 0  9995,2 49299  87.9308   9.5341 0001634  84.7245 275.4074 13.20772091167955,13.20772091,0.0001634,LEO
49300,ONEWEB-0374,2021,109.55,148.0,+,87.9,Active,1,LEO,Russia,UK,Commercial,Communications,Soyuz,1 49300U 21090X   25055.63186662 -.00000148  00000+0 -43392-3 0  9991,2 49300  87.9036  24.6489 0001585  99.3022 260.8287 13.14504401166119,13.14504401,0.0001585,LEO
49301,ONEWEB-0375,2021,109.03,148.0,+,87.93,Active,1,LEO,Russia,UK,Commercial,Communications,Soyuz,1 49301U 21090Y   25055.60487243 -.00000212  00000+0 -55305-3 0  9997,2 49301  87.9307   9.4689 0001212  83.4938 276.6333 13.20771055168770,13.20771055,0.0001212,LEO
49302,ONEWEB-0376,2021,109.11,148.0,+,87.92,Active,1,LEO,Russia,UK,Commercial,Communications,Soyuz,1 49302U 21090Z   25055.46667265 -.00000153  00000+0 -41369-3 0  9995,2 49302  87.9168  39.9063 0002140  88.1656 271.9722 13.19724344163446,13.19724344,0.000214,LEO
49303,ONEWEB-0377,2021,109.03,148.0,+,87.93,Active,1,LEO,Russia,UK,Commercial,Communications,Soyuz,1 49303U 21090AA  25055.59081434  .00000055  00000+0  10356-3 0  9999,2 49303  87.9310   9.4641 0001780  73.2083 286.9246 13.20771169167471,13.20771169,0.000178,LEO
49304,ONEWEB-0378,2021,109.03,148.0,+,87.93,Active,1,LEO,Russia,UK,Commercial,Communications,Soyuz,1 49304U 21090AB  25055.38563773 -.00000083  00000+0 -23697-3 0  9993,2 49304  87.9310   9.5109 0001734  82.4098 277.7232 13.20771728166719,13.20771728,0.0001734,LEO
